NORAD_CAT_ID,OBJECT_NAME,OBJECT_TYPE,EPOCH,MEAN_MOTION,ECCENTRICITY,INCLINATION,RA_OF_ASC_NODE,ARG_OF_PERICENTER,MEAN_ANOMALY,BSTAR,MEAN_MOTION_DOT,MEAN_MOTION_DDOT,TLE_LINE0,TLE_LINE1,TLE_LINE2,SEMIMAJOR_AXIS,PERIOD,APOGEE,PERIGEE,DECAYED
52690.0,STARLINK-4035,PAYLOAD,2022-10-13 19:17:38,15.08837707,0.0001844999999999,53.2207,323.645,48.9563,311.1588,0.00014332,1.993e-05,0.0,0 STARLINK-4035,1 52690U 22053AL  22286.80391603  .00001993  00000-0  14332-3 0  9992,2 52690  53.2207 323.6450 0001845  48.9563 311.1588 15.08837707 23489,6917.887,95.438,541.029,538.476,0.0
52690.0,STARLINK-4035,PAYLOAD,2022-10-14 09:36:07,15.08839185,0.0001946,53.2193,320.9711,46.8773,313.2382,-5.0207e-05,-1.087e-05,0.0,0 STARLINK-4035,1 52690U 22053AL  22287.40008377 -.00001087  00000-0 -50207-4 0  9990,2 52690  53.2193 320.9711 0001946  46.8773 313.2382 15.08839185 23572,6917.8830000000025,95.438,541.094,538.4019999999998,0.0
52690.0,STARLINK-4035,PAYLOAD,2022-10-14 19:08:25,15.08844071,0.0002118,53.2199,319.1854,43.5652,316.5507,-5.4495e-05,-1.156e-05,0.0,0 STARLINK-4035,1 52690U 22053AL  22287.79751830 -.00001156  00000-0 -54495-4 0  9991,2 52690  53.2199 319.1854 0002118  43.5652 316.5507 15.08844071 23630,6917.868,95.437,541.198,538.268,0.0
52690.0,STARLINK-4035,PAYLOAD,2022-10-15 09:26:53,15.08844426,0.0002121,53.219,316.5084,40.7928,319.3222,1.1943e-05,-9.8e-07,0.0,0 STARLINK-4035,1 52690U 22053AL  22288.39367639 -.00000098  00000-0  11943-4 0  9992,2 52690  53.2190 316.5084 0002121  40.7928 319.3222 15.08844426 23354,6917.8669999999975,95.437,541.1990000000002,538.265,0.0
52690.0,STARLINK-4035,PAYLOAD,2022-10-16 01:20:44,15.08849671,0.0001906,53.2185,313.5356,46.3025,313.8125,9.9207e-05,1.291e-05,0.0,0 STARLINK-4035,1 52690U 22053AL  22289.05606548  .00001291  00000-0  99207-4 0  9995,2 52690  53.2185 313.5356 0001906  46.3025 313.8125 15.08849671 23456,6917.851,95.437,541.034,538.3969999999998,0.0
52690.0,STARLINK-4035,PAYLOAD,2022-10-16 18:50:01,15.08819596,0.0001906,53.2187,310.264,44.0092,316.1052,-0.00013948,-2.506e-05,0.0,0 STARLINK-4035,1 52690U 22053AL  22289.78473698 -.00002506  00000-0 -13948-3 0  9992,2 52690  53.2187 310.2640 0001906  44.0092 316.1052 15.08819596 23938,6917.943,95.439,541.126,538.489,0.0
52690.0,STARLINK-4035,PAYLOAD,2022-10-17 01:11:33,15.0882886,0.0001947,53.2193,309.0756,44.5161,315.5988,-8.1424e-05,-1.583e-05,0.0,0 STARLINK-4035,1 52690U 22053AL  22290.04969193 -.00001583  00000-0 -81424-4 0  9992,2 52690  53.2193 309.0756 0001947  44.5161 315.5988 15.08828860 23605,6917.9140000000025,95.438,541.126,538.433,0.0
52690.0,STARLINK-4035,PAYLOAD,2022-10-17 07:33:05,15.08830969,0.0001911,53.2195,307.8859,46.851000000000006,313.2641,-5.8212e-05,-1.214e-05,0.0,0 STARLINK-4035,1 52690U 22053AL  22290.31465168 -.00001214  00000-0 -58212-4 0  9995,2 52690  53.2195 307.8859 0001911  46.8510 313.2641 15.08830969 24011,6917.908,95.438,541.095,538.451,0.0
52690.0,STARLINK-4035,PAYLOAD,2022-10-18 01:02:19,15.08839904,0.0002048,53.2188,304.6161,47.8688,312.2478,5.9902e-05,6.65e-06,0.0,0 STARLINK-4035,1 52690U 22053AL  22291.04328321  .00000665  00000-0  59902-4 0  9999,2 52690  53.2188 304.6161 0002048  47.8688 312.2478 15.08839904 23758,6917.880999999999,95.438,541.1619999999998,538.3290000000002,0.0
52690.0,STARLINK-4035,PAYLOAD,2022-10-18 07:23:53,15.087574800000002,0.0002274,53.219,303.4271,65.6015,294.5214,0.0012487,0.00019596,0.0,0 STARLINK-4035,1 52690U 22053AL  22291.30826181  .00019596  00000-0  12487-2 0  9993,2 52690  53.2190 303.4271 0002274  65.6015 294.5214 15.08757480 23795,6918.1330000000025,95.443,541.571,538.424,0.0
52690.0,STARLINK-4035,PAYLOAD,2022-10-18 10:34:38,15.0882956,0.0002082,53.2181,302.8344,40.8832,319.2316,0.00017649,2.521e-05,0.0,0 STARLINK-4035,1 52690U 22053AL  22291.44072640  .00002521  00000-0  17649-3 0  9997,2 52690  53.2181 302.8344 0002082  40.8832 319.2316 15.08829560 24189,6917.9119999999975,95.438,541.2180000000002,538.337,0.0
52690.0,STARLINK-4035,PAYLOAD,2022-10-18 18:31:34,15.08832097,0.0002105,53.2175,301.3477,41.1784,318.9367,0.00012198,1.653e-05,0.0,0 STARLINK-4035,1 52690U 22053AL  22291.77192900  .00001653  00000-0  12198-3 0  9994,2 52690  53.2175 301.3477 0002105  41.1784 318.9367 15.08832097 24236,6917.905,95.438,541.226,538.313,0.0
52690.0,STARLINK-4035,PAYLOAD,2022-10-19 04:03:53,15.08839913,0.0002006999999999,53.2186,299.5609,47.3225,312.7936,0.00015848,2.235e-05,0.0,0 STARLINK-4035,1 52690U 22053AL  22292.16936380  .00002235  00000-0  15848-3 0  9998,2 52690  53.2186 299.5609 0002007  47.3225 312.7936 15.08839913 23925,6917.880999999999,95.438,541.134,538.357,0.0
52690.0,STARLINK-4035,PAYLOAD,2022-10-19 07:14:39,15.08842091,0.0002029,53.2185,298.9676,46.6177,313.4984,0.00014263,1.983e-05,0.0,0 STARLINK-4035,1 52690U 22053AL  22292.30184225  .00001983  00000-0  14263-3 0  9996,2 52690  53.2185 298.9676 0002029  46.6177 313.4984 15.08842091 24319,6917.874,95.437,541.143,538.335,0.0
52690.0,STARLINK-4035,PAYLOAD,2022-10-20 07:05:26,15.08840099,0.0001959,53.2197,294.5076,48.1281,311.9878,-6.4427e-05,-1.313e-05,0.0,0 STARLINK-4035,1 52690U 22053AL  22293.29544822 -.00001313  00000-0 -64427-4 0  9995,2 52690  53.2197 294.5076 0001959  48.1281 311.9878 15.08840099 24469,6917.88,95.438,541.1,538.39,0.0
52690.0,STARLINK-4035,PAYLOAD,2022-10-20 16:37:45,15.08839493,0.0001993,53.2186,292.7219,43.7606,316.3544,1.6623e-05,-2.4e-07,0.0,0 STARLINK-4035,1 52690U 22053AL  22293.69288515 -.00000024  00000-0  16623-4 0  9995,2 52690  53.2186 292.7219 0001993  43.7606 316.3544 15.08839493 24528,6917.882,95.438,541.126,538.368,0.0
52690.0,STARLINK-4035,PAYLOAD,2022-10-21 06:56:13,15.08837878,0.0002008,53.2186,290.0451,44.378,315.7373,-6.7792e-05,-1.367e-05,0.0,0 STARLINK-4035,1 52690U 22053AL  22294.28904939 -.00001367  00000-0 -67792-4 0  9991,2 52690  53.2186 290.0451 0002008  44.3780 315.7373 15.08837878 24613,6917.887,95.438,541.141,538.363,0.0
52690.0,STARLINK-4035,PAYLOAD,2022-10-21 16:28:32,15.08834649,0.000223,53.2187,288.2613,40.1296,319.986,-3.7611e-05,-8.87e-06,0.0,0 STARLINK-4035,1 52690U 22053AL  22294.68649112 -.00000887  00000-0 -37611-4 0  9997,2 52690  53.2187 288.2613 0002230  40.1296 319.9860 15.08834649 24672,6917.897,95.438,541.304,538.219,0.0
52690.0,STARLINK-4035,PAYLOAD,2022-10-22 03:36:13,15.08847926,0.00021,53.2185,286.1797,41.643,318.4722,3.5455e-05,2.76e-06,0.0,0 STARLINK-4035,1 52690U 22053AL  22295.15015924  .00000276  00000-0  35455-4 0  9992,2 52690  53.2185 286.1797 0002100  41.6430 318.4722 15.08847926 24372,6917.856,95.437,541.174,538.268,0.0
52690.0,STARLINK-4035,PAYLOAD,2022-10-22 06:47:00,15.08840698,0.0002198999999999,53.2194,285.5853,44.3504,315.7664,-2.6297e-05,-7.07e-06,0.0,0 STARLINK-4035,1 52690U 22053AL  22295.28264506 -.00000707  00000-0 -26297-4 0  9993,2 52690  53.2194 285.5853 0002199  44.3504 315.7664 15.08840698 24394,6917.878000000002,95.438,541.264,538.222,0.0
52690.0,STARLINK-4035,PAYLOAD,2022-10-23 08:13:10,15.08839837,0.0002032,53.2192,280.8272,44.1695,315.9459,0.00010176,1.332e-05,0.0,0 STARLINK-4035,1 52690U 22053AL  22296.34248018  .00001332  00000-0  10176-3 0  9992,2 52690  53.2192 280.8272 0002032  44.1695 315.9459 15.08839837 24926,6917.880999999999,95.438,541.1519999999998,538.34,0.0
52690.0,STARLINK-4035,PAYLOAD,2022-10-24 03:17:47,15.08852808,0.0002255999999999,53.2195,277.2609,44.7598,315.3575,5.251e-05,5.48e-06,0.0,0 STARLINK-4035,1 52690U 22053AL  22297.13735117  .00000548  00000-0  52510-4 0  9998,2 52690  53.2195 277.2609 0002256  44.7598 315.3575 15.08852808 24677,6917.840999999999,95.437,541.2669999999998,538.146,0.0
52690.0,STARLINK-4035,PAYLOAD,2022-10-24 08:03:57,15.08843121,0.0002163,53.2193,276.369,48.9535,311.1644,-2.086e-05,-6.2e-06,0.0,0 STARLINK-4035,1 52690U 22053AL  22297.33607813 -.00000620  00000-0 -20860-4 0  9997,2 52690  53.2193 276.3690 0002163  48.9535 311.1644 15.08843121 24702,6917.871,95.437,541.232,538.24,0.0
52690.0,STARLINK-4035,PAYLOAD,2022-10-24 16:00:54,15.08822563,0.0002185,53.219,274.8789,46.8712,313.2463,-0.00014752,-2.634e-05,0.0,0 STARLINK-4035,1 52690U 22053AL  22297.66729691 -.00002634  00000-0 -14752-3 0  9991,2 52690  53.2190 274.8789 0002185  46.8712 313.2463 15.08822563 24753,6917.934,95.439,541.31,538.2869999999998,0.0
52690.0,STARLINK-4035,PAYLOAD,2022-10-25 04:43:58,15.08837282,0.0001868,53.2196,272.5022,40.7566,319.3566,-0.00011657,-2.143e-05,0.0,0 STARLINK-4035,1 52690U 22053AL  22298.19721025 -.00002143  00000-0 -11657-3 0  9999,2 52690  53.2196 272.5022 0001868  40.7566 319.3566 15.08837282 24835,6917.889,95.438,541.0459999999998,538.461,0.0
52690.0,STARLINK-4035,PAYLOAD,2022-10-25 07:54:44,15.08840317,0.0001953,53.2189,271.9064,46.4256,313.6898,-8.860899999999999e-05,-1.698e-05,0.0,0 STARLINK-4035,1 52690U 22053AL  22298.32968748 -.00001698  00000-0 -88609-4 0  9995,2 52690  53.2189 271.9064 0001953  46.4256 313.6898 15.08840317 25222,6917.879,95.438,541.095,538.393,0.0
52690.0,STARLINK-4035,PAYLOAD,2022-10-26 07:45:32,15.08832472,0.0002053,53.2192,267.4461,46.1431,313.9731,1.9278e-05,1.9e-07,0.0,0 STARLINK-4035,1 52690U 22053AL  22299.32329047  .00000019  00000-0  19278-4 0  9999,2 52690  53.2192 267.4461 0002053  46.1431 313.9731 15.08832472 25009,6917.903,95.438,541.189,538.3480000000002,0.0
52690.0,STARLINK-4035,PAYLOAD,2022-10-27 07:36:19,15.08838007,0.0001923,53.2193,262.9865,44.6679,315.4468,7.5728e-05,9.17e-06,0.0,0 STARLINK-4035,1 52690U 22053AL  22300.31688887  .00000917  00000-0  75728-4 0  9990,2 52690  53.2193 262.9865 0001923  44.6679 315.4468 15.08838007 25521,6917.886,95.438,541.082,538.4209999999998,0.0
52690.0,STARLINK-4035,PAYLOAD,2022-10-28 04:16:19,15.08845113,0.0001964,53.2184,259.1223,38.7129,321.4004,6.110100000000001e-05,6.85e-06,0.0,0 STARLINK-4035,1 52690U 22053AL  22301.17800379  .00000685  00000-0  61101-4 0  9999,2 52690  53.2184 259.1223 0001964  38.7129 321.4004 15.08845113 25288,6917.865,95.437,541.0880000000002,538.371,0.0
